DIRECTV 11              
1 32729U 08013A   26117.00600437 -.00000136  00000+0  00000+0 0  9991
2 32729   0.0159 106.6815 0000308 257.4247 113.8610  1.00271519 45082
ICO G1                  
1 32763U 08016A   26117.20253023 -.00000180  00000+0  00000+0 0  9998
2 32763   5.5204  36.2434 0002416 347.4814 171.5366  1.00272533 66032
VINASAT-1               
1 32767U 08018A   26117.22683675 -.00000338  00000+0  00000+0 0  9991
2 32767   0.0060  38.1977 0002138  24.9192   5.7119  1.00271429 66077
STAR ONE C2             
1 32768U 08018B   26117.19114044 -.00000286  00000+0  00000+0 0  9999
2 32768   1.1126  82.8506 0002804 314.6238 181.5280  1.00272990 66141
AMOS-3                  
1 32794U 08022A   26117.22267126  .00000044  00000+0  00000+0 0  9998
2 32794   0.3252  86.6765 0000166 104.0383 108.2525  1.00453707 81828
GALAXY 18 (G-18)        
1 32951U 08024A   26117.25036410  .00000015  00000+0  00000+0 0  9996
2 32951   0.0156 261.0535 0003253 142.5227 138.7919  1.00272012 45341
ZHONGXING-9             
1 33051U 08028A   26117.19191774 -.00000259  00000+0  00000+0 0  9991
2 33051   0.6398  85.8762 0006364 282.5657   8.2175  1.00272642 65525
SKYNET 5C               
1 33055U 08030A   26117.23378113 -.00000147  00000+0  00000+0 0  9993
2 33055   3.6607  77.6230 0003788 320.2821 243.6911  1.00271629 65442
TURKSAT 3A              
1 33056U 08030B   26117.20044858  .00000136  00000+0  00000+0 0  9994
2 33056   0.0754  78.6520 0005089 319.0773 291.6177  1.00274703 51840
INTELSAT 25 (IS-25)     
1 33153U 08034A   26113.08239256 -.00000278  00000+0  00000+0 0  9994
2 33153   2.5670  80.9425 0002165 274.6153 207.9060  0.99965107 65143
ECHOSTAR 11             
1 33207U 08035A   26117.15183398 -.00000067  00000+0  00000+0 0  9998
2 33207   0.8747  84.6711 0002463 296.8290 138.5049  1.00271335 50705
SUPERBIRD-C2            
1 33274U 08038A   26117.22683675 -.00000314  00000+0  00000+0 0  9991
2 33274   2.2315  81.8644 0004529   2.4004 348.6316  1.00272173105218
INMARSAT 4-F3           
1 33278U 08039A   26117.22270503 -.00000149  00000+0  00000+0 0  9994
2 33278   4.2514  31.4286 0003143  12.4170 153.5470  1.00272695 46031
NIMIQ 4                 
1 33373U 08044A   26117.22899178 -.00000230  00000+0  00000+0 0  9992
2 33373   0.0156 139.5409 0002211 252.7411 183.3927  1.00271192 64479
GALAXY 19 (G-19)        
1 33376U 08045A   26117.27787686 -.00000149  00000+0  00000+0 0  9990
2 33376   0.0193 249.1154 0003359 163.8217 165.3586  1.00272017 64397
ASTRA 1M                
1 33436U 08057A   26117.21155843  .00000111  00000+0  00000+0 0  9996
2 33436   0.1662  79.5439 0003906   2.5412 228.6914  1.00274738 45222
EUTELSAT HOTBIRD 13C    
1 33459U 08065A   26117.05448142 -.00000291  00000+0  00000+0 0  9999
2 33459   2.8210  79.7675 0004230 321.6560 142.9510  1.00269987 46837
