[{"OBJECT_NAME":"DIRECTV 11","OBJECT_ID":"2008-013A","EPOCH":"2026-04-27T00:08:38.777568","MEAN_MOTION":1.00271519,"ECCENTRICITY":3.082e-5,"INCLINATION":0.0159,"RA_OF_ASC_NODE":106.6815,"ARG_OF_PERICENTER":257.4247,"MEAN_ANOMALY":113.861,"EPHEMERIS_TYPE":0,"CLASSIFICATION_TYPE":"U","NORAD_CAT_ID":32729,"ELEMENT_SET_NO":999,"REV_AT_EPOCH":4508,"BSTAR":0,"MEAN_MOTION_DOT":-1.36e-6,"MEAN_MOTION_DDOT":0},{"OBJECT_NAME":"ICO G1","OBJECT_ID":"2008-016A","EPOCH":"2026-04-27T04:51:38.611872","MEAN_MOTION":1.00272533,"ECCENTRICITY":0.00024168,"INCLINATION":5.5204,"RA_OF_ASC_NODE":36.2434,"ARG_OF_PERICENTER":347.4814,"MEAN_ANOMALY":171.5366,"EPHEMERIS_TYPE":0,"CLASSIFICATION_TYPE":"U","NORAD_CAT_ID":32763,"ELEMENT_SET_NO":999,"REV_AT_EPOCH":6603,"BSTAR":0,"MEAN_MOTION_DOT":-1.8e-6,"MEAN_MOTION_DDOT":0},{"OBJECT_NAME":"VINASAT-1","OBJECT_ID":"2008-018A","EPOCH":"2026-04-27T05:26:38.695200","MEAN_MOTION":1.00271429,"ECCENTRICITY":0.00021385,"INCLINATION":0.006,"RA_OF_ASC_NODE":38.1977,"ARG_OF_PERICENTER":24.9192,"MEAN_ANOMALY":5.7119,"EPHEMERIS_TYPE":0,"CLASSIFICATION_TYPE":"U","NORAD_CAT_ID":32767,"ELEMENT_SET_NO":999,"REV_AT_EPOCH":6607,"BSTAR":0,"MEAN_MOTION_DOT":-3.38e-6,"MEAN_MOTION_DDOT":0},{"OBJECT_NAME":"STAR ONE C2","OBJECT_ID":"2008-018B","EPOCH":"2026-04-27T04:35:14.534016","MEAN_MOTION":1.0027299,"ECCENTRICITY":0.00028041,"INCLINATION":1.1126,"RA_OF_ASC_NODE":82.8506,"ARG_OF_PERICENTER":314.6238,"MEAN_ANOMALY":181.528,"EPHEMERIS_TYPE":0,"CLASSIFICATION_TYPE":"U","NORAD_CAT_ID":32768,"ELEMENT_SET_NO":999,"REV_AT_EPOCH":6614,"BSTAR":0,"MEAN_MOTION_DOT":-2.86e-6,"MEAN_MOTION_DDOT":0},{"OBJECT_NAME":"AMOS-3","OBJECT_ID":"2008-022A","EPOCH":"2026-04-27T05:20:38.796864","MEAN_MOTION":1.00453707,"ECCENTRICITY":1.66e-5,"INCLINATION":0.3252,"RA_OF_ASC_NODE":86.6765,"ARG_OF_PERICENTER":104.0383,"MEAN_ANOMALY":108.2525,"EPHEMERIS_TYPE":0,"CLASSIFICATION_TYPE":"U","NORAD_CAT_ID":32794,"ELEMENT_SET_NO":999,"REV_AT_EPOCH":8182,"BSTAR":0,"MEAN_MOTION_DOT":4.4e-7,"MEAN_MOTION_DDOT":0},{"OBJECT_NAME":"GALAXY 18 (G-18)","OBJECT_ID":"2008-024A","EPOCH":"2026-04-27T06:00:31.458240","MEAN_MOTION":1.00272012,"ECCENTRICITY":0.00032531,"INCLINATION":0.0156,"RA_OF_ASC_NODE":261.0535,"ARG_OF_PERICENTER":142.5227,"MEAN_ANOMALY":138.7919,"EPHEMERIS_TYPE":0,"CLASSIFICATION_TYPE":"U","NORAD_CAT_ID":32951,"ELEMENT_SET_NO":999,"REV_AT_EPOCH":4534,"BSTAR":0,"MEAN_MOTION_DOT":1.5e-7,"MEAN_MOTION_DDOT":0},{"OBJECT_NAME":"ZHONGXING-9","OBJECT_ID":"2008-028A","EPOCH":"2026-04-27T04:36:21.692736","MEAN_MOTION":1.00272642,"ECCENTRICITY":0.00063644,"INCLINATION":0.6398,"RA_OF_ASC_NODE":85.8762,"ARG_OF_PERICENTER":282.5657,"MEAN_ANOMALY":8.2175,"EPHEMERIS_TYPE":0,"CLASSIFICATION_TYPE":"U","NORAD_CAT_ID":33051,"ELEMENT_SET_NO":999,"REV_AT_EPOCH":6552,"BSTAR":0,"MEAN_MOTION_DOT":-2.59e-6,"MEAN_MOTION_DDOT":0},{"OBJECT_NAME":"SKYNET 5C","OBJECT_ID":"2008-030A","EPOCH":"2026-04-27T05:36:38.689632","MEAN_MOTION":1.00271629,"ECCENTRICITY":0.00037886,"INCLINATION":3.6607,"RA_OF_ASC_NODE":77.623,"ARG_OF_PERICENTER":320.2821,"MEAN_ANOMALY":243.6911,"EPHEMERIS_TYPE":0,"CLASSIFICATION_TYPE":"U","NORAD_CAT_ID":33055,"ELEMENT_SET_NO":999,"REV_AT_EPOCH":6544,"BSTAR":0,"MEAN_MOTION_DOT":-1.47e-6,"MEAN_MOTION_DDOT":0},{"OBJECT_NAME":"TURKSAT 3A","OBJECT_ID":"2008-030B","EPOCH":"2026-04-27T04:48:38.757312","MEAN_MOTION":1.00274703,"ECCENTRICITY":0.00050892,"INCLINATION":0.0754,"RA_OF_ASC_NODE":78.652,"ARG_OF_PERICENTER":319.0773,"MEAN_ANOMALY":291.6177,"EPHEMERIS_TYPE":0,"CLASSIFICATION_TYPE":"U","NORAD_CAT_ID":33056,"ELEMENT_SET_NO":999,"REV_AT_EPOCH":5184,"BSTAR":0,"MEAN_MOTION_DOT":1.36e-6,"MEAN_MOTION_DDOT":0},{"OBJECT_NAME":"INTELSAT 25 (IS-25)","OBJECT_ID":"2008-034A","EPOCH":"2026-04-23T01:58:38.717184","MEAN_MOTION":0.99965107,"ECCENTRICITY":0.00021655,"INCLINATION":2.567,"RA_OF_ASC_NODE":80.9425,"ARG_OF_PERICENTER":274.6153,"MEAN_ANOMALY":207.906,"EPHEMERIS_TYPE":0,"CLASSIFICATION_TYPE":"U","NORAD_CAT_ID":33153,"ELEMENT_SET_NO":999,"REV_AT_EPOCH":6514,"BSTAR":0,"MEAN_MOTION_DOT":-2.78e-6,"MEAN_MOTION_DDOT":0},{"OBJECT_NAME":"ECHOSTAR 11","OBJECT_ID":"2008-035A","EPOCH":"2026-04-27T03:38:38.455872","MEAN_MOTION":1.00271335,"ECCENTRICITY":0.00024638,"INCLINATION":0.8747,"RA_OF_ASC_NODE":84.6711,"ARG_OF_PERICENTER":296.829,"MEAN_ANOMALY":138.5049,"EPHEMERIS_TYPE":0,"CLASSIFICATION_TYPE":"U","NORAD_CAT_ID":33207,"ELEMENT_SET_NO":999,"REV_AT_EPOCH":5070,"BSTAR":0,"MEAN_MOTION_DOT":-6.7e-7,"MEAN_MOTION_DDOT":0},{"OBJECT_NAME":"SUPERBIRD-C2","OBJECT_ID":"2008-038A","EPOCH":"2026-04-27T05:26:38.695200","MEAN_MOTION":1.00272173,"ECCENTRICITY":0.00045296,"INCLINATION":2.2315,"RA_OF_ASC_NODE":81.8644,"ARG_OF_PERICENTER":2.4004,"MEAN_ANOMALY":348.6316,"EPHEMERIS_TYPE":0,"CLASSIFICATION_TYPE":"U","NORAD_CAT_ID":33274,"ELEMENT_SET_NO":999,"REV_AT_EPOCH":10521,"BSTAR":0,"MEAN_MOTION_DOT":-3.14e-6,"MEAN_MOTION_DDOT":0},{"OBJECT_NAME":"INMARSAT 4-F3","OBJECT_ID":"2008-039A","EPOCH":"2026-04-27T05:20:41.714592","MEAN_MOTION":1.00272695,"ECCENTRICITY":0.0003143,"INCLINATION":4.2514,"RA_OF_ASC_NODE":31.4286,"ARG_OF_PERICENTER":12.417,"MEAN_ANOMALY":153.547,"EPHEMERIS_TYPE":0,"CLASSIFICATION_TYPE":"U","NORAD_CAT_ID":33278,"ELEMENT_SET_NO":999,"REV_AT_EPOCH":4603,"BSTAR":0,"MEAN_MOTION_DOT":-1.49e-6,"MEAN_MOTION_DDOT":0},{"OBJECT_NAME":"NIMIQ 4","OBJECT_ID":"2008-044A","EPOCH":"2026-04-27T05:29:44.889792","MEAN_MOTION":1.00271192,"ECCENTRICITY":0.00022119,"INCLINATION":0.0156,"RA_OF_ASC_NODE":139.5409,"ARG_OF_PERICENTER":252.7411,"MEAN_ANOMALY":183.3927,"EPHEMERIS_TYPE":0,"CLASSIFICATION_TYPE":"U","NORAD_CAT_ID":33373,"ELEMENT_SET_NO":999,"REV_AT_EPOCH":6447,"BSTAR":0,"MEAN_MOTION_DOT":-2.3e-6,"MEAN_MOTION_DDOT":0},{"OBJECT_NAME":"GALAXY 19 (G-19)","OBJECT_ID":"2008-045A","EPOCH":"2026-04-27T06:40:08.560704","MEAN_MOTION":1.00272017,"ECCENTRICITY":0.0003359,"INCLINATION":0.0193,"RA_OF_ASC_NODE":249.1154,"ARG_OF_PERICENTER":163.8217,"MEAN_ANOMALY":165.3586,"EPHEMERIS_TYPE":0,"CLASSIFICATION_TYPE":"U","NORAD_CAT_ID":33376,"ELEMENT_SET_NO":999,"REV_AT_EPOCH":6439,"BSTAR":0,"MEAN_MOTION_DOT":-1.49e-6,"MEAN_MOTION_DDOT":0},{"OBJECT_NAME":"ASTRA 1M","OBJECT_ID":"2008-057A","EPOCH":"2026-04-27T05:04:38.648352","MEAN_MOTION":1.00274738,"ECCENTRICITY":0.00039066,"INCLINATION":0.1662,"RA_OF_ASC_NODE":79.5439,"ARG_OF_PERICENTER":2.5412,"MEAN_ANOMALY":228.6914,"EPHEMERIS_TYPE":0,"CLASSIFICATION_TYPE":"U","NORAD_CAT_ID":33436,"ELEMENT_SET_NO":999,"REV_AT_EPOCH":4522,"BSTAR":0,"MEAN_MOTION_DOT":1.11e-6,"MEAN_MOTION_DDOT":0},{"OBJECT_NAME":"EUTELSAT HOTBIRD 13C","OBJECT_ID":"2008-065A","EPOCH":"2026-04-27T01:18:27.194688","MEAN_MOTION":1.00269987,"ECCENTRICITY":0.00042304,"INCLINATION":2.821,"RA_OF_ASC_NODE":79.7675,"ARG_OF_PERICENTER":321.656,"MEAN_ANOMALY":142.951,"EPHEMERIS_TYPE":0,"CLASSIFICATION_TYPE":"U","NORAD_CAT_ID":33459,"ELEMENT_SET_NO":999,"REV_AT_EPOCH":4683,"BSTAR":0,"MEAN_MOTION_DOT":-2.91e-6,"MEAN_MOTION_DDOT":0}]
